[{"OBJECT_NAME":"PRSS-1","OBJECT_ID":"2018-056B","EPOCH":"2026-03-09T22:22:59.119680","MEAN_MOTION":14.81812509,"ECCENTRICITY":0.00013581,"INCLINATION":97.7911,"RA_OF_ASC_NODE":139.5221,"ARG_OF_PERICENTER":77.954,"MEAN_ANOMALY":282.1826,"EPHEMERIS_TYPE":0,"CLASSIFICATION_TYPE":"U","NORAD_CAT_ID":43530,"ELEMENT_SET_NO":999,"REV_AT_EPOCH":41373,"BSTAR":0.00012829012,"MEAN_MOTION_DOT":9.62e-6,"MEAN_MOTION_DDOT":0},{"OBJECT_NAME":"TITAN 3C TRANSTAGE DEB","OBJECT_ID":"1965-082AV","EPOCH":"2026-03-09T12:33:52.595424","MEAN_MOTION":14.74165219,"ECCENTRICITY":0.00482517,"INCLINATION":32.4111,"RA_OF_ASC_NODE":236.9999,"ARG_OF_PERICENTER":313.487,"MEAN_ANOMALY":46.1779,"EPHEMERIS_TYPE":0,"CLASSIFICATION_TYPE":"U","NORAD_CAT_ID":1682,"ELEMENT_SET_NO":999,"REV_AT_EPOCH":17576,"BSTAR":0.00035759717,"MEAN_MOTION_DOT":2.484e-5,"MEAN_MOTION_DDOT":0}]
